{
"type": "FeatureCollection",
"name": "sawah",
"crs": { "type": "name", "properties": { "name": "urn:ogc:def:crs:OGC:1.3:CRS84" } },
"features": [
{"type":"Feature","properties":{"FID":0,"label":"non sawah"},"geometry":{"type":"MultiPolygon","coordinates":[[[[117.6262055,4.1003071],[117.6265482,4.1004097],[117.6266967,4.0997431],[117.6263826,4.0996406],[117.6262055,4.1003071]]]]}},
{"type":"Feature","properties":{"FID":1,"label":"non sawah"},"geometry":{"type":"MultiPolygon","coordinates":[[[[117.6261536,4.1001939],[117.6263592,4.09959],[117.6259594,4.0993279],[117.6257309,4.1000458],[117.6261536,4.1001939]]]]}},
{"type":"Feature","properties":{"FID":2,"label":"non sawah"},"geometry":{"type":"MultiPolygon","coordinates":[[[[117.6265952,4.0996181],[117.6272977,4.0997947],[117.6273663,4.0993789],[117.6269093,4.0990257],[117.6265952,4.0996181]]]]}},
{"type":"Feature","properties":{"FID":3,"label":"non sawah"},"geometry":{"type":"MultiPolygon","coordinates":[[[[117.6264695,4.0995327],[117.6266238,4.0990484],[117.6258927,4.0987978],[117.6257784,4.0990484],[117.6264695,4.0995327]]]]}},
{"type":"Feature","properties":{"FID":4,"label":"non sawah"},"geometry":{"type":"MultiPolygon","coordinates":[[[[117.6257147,4.0984957],[117.6252578,4.0983875],[117.6251778,4.0986552],[117.6256405,4.0989287],[117.6257147,4.0984957]]]]}},
{"type":"Feature","properties":{"FID":5,"label":"non sawah"},"geometry":{"type":"MultiPolygon","coordinates":[[[[117.6254047,4.0988951],[117.6247251,4.0984736],[117.6246051,4.0987014],[117.6249764,4.0992768],[117.6254047,4.0988951]]]]}},
{"type":"Feature","properties":{"FID":6,"label":"non sawah"},"geometry":{"type":"MultiPolygon","coordinates":[[[[117.6231206,4.0978131],[117.6230749,4.0982347],[117.6237219,4.0984293],[117.6237472,4.0980262],[117.6231206,4.0978131]]]]}},
{"type":"Feature","properties":{"FID":7,"label":"non sawah"},"geometry":{"type":"MultiPolygon","coordinates":[[[[117.6249559,4.0985352],[117.6250701,4.098239],[117.6243505,4.097994],[117.6242819,4.0981877],[117.6249559,4.0985352]]]]}},
{"type":"Feature","properties":{"FID":8,"label":"non sawah"},"geometry":{"type":"MultiPolygon","coordinates":[[[[117.6234537,4.0978559],[117.6241277,4.098061],[117.6243219,4.0976964],[117.6236594,4.0970925],[117.6234709,4.0972976],[117.6234537,4.0978559]]]]}},
{"type":"Feature","properties":{"FID":9,"label":"non sawah"},"geometry":{"type":"MultiPolygon","coordinates":[[[[117.6233566,4.0978103],[117.6234195,4.0973432],[117.6230539,4.0967336],[117.6225513,4.0969387],[117.6229968,4.0976394],[117.6233566,4.0978103]]]]}},
{"type":"Feature","properties":{"FID":10,"label":"non sawah"},"geometry":{"type":"MultiPolygon","coordinates":[[[[117.6233985,4.0972614],[117.6236155,4.097005],[117.6233356,4.0966404],[117.6231015,4.0967543],[117.6233985,4.0972614]]]]}},
{"type":"Feature","properties":{"FID":11,"label":"non sawah"},"geometry":{"type":"MultiPolygon","coordinates":[[[[117.620679,4.0959598],[117.6209087,4.0967418],[117.6220016,4.0964179],[117.6213126,4.0953989],[117.620679,4.0959598]]]]}},
{"type":"Feature","properties":{"FID":12,"label":"non sawah"},"geometry":{"type":"MultiPolygon","coordinates":[[[[117.6206893,4.0938084],[117.6214258,4.0935398],[117.6210377,4.0927894],[117.6205863,4.0932475],[117.6206893,4.0938084]]]]}},
{"type":"Feature","properties":{"FID":13,"label":"non sawah"},"geometry":{"type":"MultiPolygon","coordinates":[[[[117.6227157,4.0885291],[117.6234633,4.0880024],[117.6232735,4.087671],[117.6224962,4.0882569],[117.6227157,4.0885291]]]]}},
{"type":"Feature","properties":{"FID":14,"label":"non sawah"},"geometry":{"type":"MultiPolygon","coordinates":[[[[117.6247951,4.0870652],[117.6249553,4.0873197],[117.626492,4.086065],[117.626225,4.085775],[117.6247951,4.0870652]]]]}},
{"type":"Feature","properties":{"FID":15,"label":"non sawah"},"geometry":{"type":"MultiPolygon","coordinates":[[[[117.6223085,4.0887884],[117.6222128,4.0885117],[117.6215672,4.0887502],[117.6216485,4.089003],[117.6223085,4.0887884]]]]}},
{"type":"Feature","properties":{"FID":16,"label":"non sawah"},"geometry":{"type":"MultiPolygon","coordinates":[[[[117.6215672,4.0890078],[117.6214774,4.088663],[117.6210087,4.0887823],[117.6211044,4.0891591],[117.6215672,4.0890078]]]]}},
{"type":"Feature","properties":{"FID":17,"label":"non sawah"},"geometry":{"type":"MultiPolygon","coordinates":[[[[117.6210523,4.0891507],[117.6209758,4.0887786],[117.620488,4.0890123],[117.6206028,4.0893081],[117.6210523,4.0891507]]]]}},
{"type":"Feature","properties":{"FID":18,"label":"non sawah"},"geometry":{"type":"MultiPolygon","coordinates":[[[[117.6205637,4.0893147],[117.6204107,4.0890094],[117.6197698,4.0892193],[117.6198033,4.0895341],[117.6205637,4.0893147]]]]}},
{"type":"Feature","properties":{"FID":19,"label":"non sawah"},"geometry":{"type":"MultiPolygon","coordinates":[[[[117.6196814,4.0894435],[117.6196862,4.0888662],[117.6192366,4.0886516],[117.6193562,4.0891238],[117.6196814,4.0894435]]]]}},
{"type":"Feature","properties":{"FID":20,"label":"non sawah"},"geometry":{"type":"MultiPolygon","coordinates":[[[[117.6190071,4.0884226],[117.6194662,4.0876021],[117.6192223,4.0874208],[117.6188684,4.0882222],[117.6190071,4.0884226]]]]}},
{"type":"Feature","properties":{"FID":21,"label":"non sawah"},"geometry":{"type":"MultiPolygon","coordinates":[[[[117.6190405,4.088518],[117.6193227,4.0886086],[117.6197245,4.0878549],[117.6194662,4.0877118],[117.6190405,4.088518]]]]}},
{"type":"Feature","properties":{"FID":22,"label":"non sawah"},"geometry":{"type":"MultiPolygon","coordinates":[[[[117.6196469,4.0876599],[117.6198334,4.0878077],[117.6201491,4.0873402],[117.6199147,4.0872114],[117.6196469,4.0876599]]]]}},
{"type":"Feature","properties":{"FID":23,"label":"non sawah"},"geometry":{"type":"MultiPolygon","coordinates":[[[[117.6199625,4.0872067],[117.620173,4.0873069],[117.6203834,4.0867153],[117.6201634,4.0866438],[117.6199625,4.0872067]]]]}},
{"type":"Feature","properties":{"FID":24,"label":"non sawah"},"geometry":{"type":"MultiPolygon","coordinates":[[[[117.618034,4.0904893],[117.6193233,4.0907724],[117.6193801,4.0901982],[117.6181719,4.0899555],[117.618034,4.0904893]]]]}},
{"type":"Feature","properties":{"FID":25,"label":"non sawah"},"geometry":{"type":"MultiPolygon","coordinates":[[[[117.6187071,4.0899941],[117.619364,4.0901478],[117.6196315,4.0895169],[117.6191288,4.0890882],[117.6187071,4.0899941]]]]}},
{"type":"Feature","properties":{"FID":26,"label":"non sawah"},"geometry":{"type":"MultiPolygon","coordinates":[[[[117.6186625,4.089525],[117.6190801,4.0890195],[117.6186884,4.0887912],[117.6180787,4.0893066],[117.6186625,4.089525]]]]}},
{"type":"Feature","properties":{"FID":27,"label":"non sawah"},"geometry":{"type":"MultiPolygon","coordinates":[[[[117.6195534,4.0908186],[117.6197664,4.0907627],[117.6198673,4.0896053],[117.6196431,4.0897954],[117.6195534,4.0908186]]]]}},
{"type":"Feature","properties":{"FID":28,"label":"non sawah"},"geometry":{"type":"MultiPolygon","coordinates":[[[[117.6198395,4.0900776],[117.6203776,4.0898708],[117.6202991,4.0894682],[117.6199011,4.0896136],[117.6198395,4.0900776]]]]}},
{"type":"Feature","properties":{"FID":29,"label":"non sawah"},"geometry":{"type":"MultiPolygon","coordinates":[[[[117.620416,4.0898232],[117.6210901,4.0896741],[117.6208781,4.0893206],[117.620336,4.0894696],[117.620416,4.0898232]]]]}},
{"type":"Feature","properties":{"FID":30,"label":"non sawah"},"geometry":{"type":"MultiPolygon","coordinates":[[[[117.6210275,4.0895563],[117.6214723,4.08948],[117.6214445,4.0891715],[117.6209233,4.089331],[117.6210275,4.0895563]]]]}},
{"type":"Feature","properties":{"FID":31,"label":"non sawah"},"geometry":{"type":"MultiPolygon","coordinates":[[[[117.6214753,4.0891753],[117.6214996,4.0894629],[117.6221181,4.0893312],[117.6220486,4.0889777],[117.6214753,4.0891753]]]]}},
{"type":"Feature","properties":{"FID":32,"label":"non sawah"},"geometry":{"type":"MultiPolygon","coordinates":[[[[117.6223069,4.0889302],[117.6226479,4.0895176],[117.6229733,4.089327],[117.6227099,4.088688],[117.6223069,4.0889302]]]]}},
{"type":"Feature","properties":{"FID":33,"label":"non sawah"},"geometry":{"type":"MultiPolygon","coordinates":[[[[117.6228683,4.0889156],[117.6232558,4.088694],[117.6231214,4.0884157],[117.6227547,4.0886682],[117.6228683,4.0889156]]]]}},
{"type":"Feature","properties":{"FID":34,"label":"non sawah"},"geometry":{"type":"MultiPolygon","coordinates":[[[[117.6231621,4.0883951],[117.6232913,4.0886579],[117.6237614,4.0885497],[117.6235772,4.0881127],[117.6231621,4.0883951]]]]}},
{"type":"Feature","properties":{"FID":35,"label":"non sawah"},"geometry":{"type":"MultiPolygon","coordinates":[[[[117.6235925,4.0880884],[117.6237837,4.0883976],[117.6242899,4.0879441],[117.624135,4.0876659],[117.6235925,4.0880884]]]]}},
{"type":"Feature","properties":{"FID":36,"label":"non sawah"},"geometry":{"type":"MultiPolygon","coordinates":[[[[117.6241391,4.0876452],[117.6243251,4.0878977],[117.6247384,4.0875576],[117.6245007,4.0873155],[117.6241391,4.0876452]]]]}},
{"type":"Feature","properties":{"FID":37,"label":"non sawah"},"geometry":{"type":"MultiPolygon","coordinates":[[[[117.6247359,4.0870837],[117.6245189,4.087295],[117.6249064,4.0877072],[117.6250923,4.0875681],[117.6247359,4.0870837]]]]}},
{"type":"Feature","properties":{"FID":38,"label":"non sawah"},"geometry":{"type":"MultiPolygon","coordinates":[[[[117.6233462,4.0874341],[117.6237853,4.0877588],[117.6242038,4.0873723],[117.6238112,4.0870374],[117.6233462,4.0874341]]]]}},
{"type":"Feature","properties":{"FID":39,"label":"non sawah"},"geometry":{"type":"MultiPolygon","coordinates":[[[[117.6238887,4.0870631],[117.6242761,4.087362],[117.6247049,4.0870065],[117.624346,4.0867243],[117.6238887,4.0870631]]]]}},
{"type":"Feature","properties":{"FID":40,"label":"non sawah"},"geometry":{"type":"MultiPolygon","coordinates":[[[[117.6242982,4.0866719],[117.624727,4.0869553],[117.6250473,4.0866873],[117.624603,4.0862905],[117.6242982,4.0866719]]]]}},
{"type":"Feature","properties":{"FID":41,"label":"non sawah"},"geometry":{"type":"MultiPolygon","coordinates":[[[[117.621237,4.0983786],[117.6219538,4.0984194],[117.6220306,4.0979598],[117.6213241,4.0979701],[117.621237,4.0983786]]]]}},
{"type":"Feature","properties":{"FID":42,"label":"non sawah"},"geometry":{"type":"MultiPolygon","coordinates":[[[[117.6219845,4.0984194],[117.6227218,4.0984909],[117.6228293,4.0978934],[117.6220562,4.0979701],[117.6219845,4.0984194]]]]}},
{"type":"Feature","properties":{"FID":43,"label":"non sawah"},"geometry":{"type":"MultiPolygon","coordinates":[[[[117.622005,4.0984654],[117.6219436,4.0988331],[117.6226706,4.0989301],[117.6227218,4.098542],[117.622005,4.0984654]]]]}},
{"type":"Feature","properties":{"FID":44,"label":"non sawah"},"geometry":{"type":"MultiPolygon","coordinates":[[[[117.621959,4.0989035],[117.6218975,4.0994193],[117.622599,4.0995163],[117.6226553,4.0989852],[117.621959,4.0989035]]]]}},
{"type":"Feature","properties":{"FID":45,"label":"non sawah"},"geometry":{"type":"MultiPolygon","coordinates":[[[[117.622654,4.0995245],[117.623097,4.0995718],[117.6232552,4.0986408],[117.62277,4.0986145],[117.622654,4.0995245]]]]}},
{"type":"Feature","properties":{"FID":46,"label":"non sawah"},"geometry":{"type":"MultiPolygon","coordinates":[[[[117.6280616,4.1004147],[117.6283242,4.1000503],[117.6277306,4.0997771],[117.6275879,4.100056],[117.6280616,4.1004147]]]]}},
{"type":"Feature","properties":{"FID":47,"label":"non sawah"},"geometry":{"type":"MultiPolygon","coordinates":[[[[117.6226258,4.0998835],[117.6226217,4.1005581],[117.6230211,4.1006353],[117.6231677,4.0998591],[117.6226258,4.0998835]]]]}},
{"type":"Feature","properties":{"FID":48,"label":"non sawah"},"geometry":{"type":"MultiPolygon","coordinates":[[[[117.619375,4.0908281],[117.6190996,4.0908399],[117.619434,4.0915227],[117.6197055,4.0914128],[117.619375,4.0908281]]]]}},
{"type":"Feature","properties":{"FID":49,"label":"non sawah"},"geometry":{"type":"MultiPolygon","coordinates":[[[[117.6237472,4.0984377],[117.624265,4.098656],[117.6243829,4.0983327],[117.6237851,4.0980682],[117.6237472,4.0984377]]]]}}
]
}
